GLOBALSTAR M094         
1 39074U 13005C   23281.38309594 -.00000078  00000+0  14171-3 0  9991
2 39074  51.9945 263.1498 0000559  47.9816 312.1098 12.62268309494353
GLOBALSTAR M096         
1 39075U 13005D   23281.47537860 -.00000073  00000+0  17369-3 0  9998
2 39075  52.0076 310.9017 0000431  45.1131 314.9771 12.62264630493280
GLOBALSTAR M078         
1 39076U 13005E   23281.60711676 -.00000111  00000+0 -41159-4 0  9992
2 39076  51.9895  35.8444 0000525 217.5222 142.5608 12.62261506491927
GLOBALSTAR M095         
1 39077U 13005F   23281.63388828 -.00000086  00000+0  97953-4 0  9998
2 39077  51.9821  33.2689 0000079   2.3305 357.7562 12.62269241491783
GLOBALSTAR M087         
1 52888U 22064A   23281.54380893 -.00000076  00000+0  99361-4 0  9996
2 52888  51.9780   9.3224 0010057  84.6168 275.5879 13.37554246 63719
